AMOS-17                 
1 44479U 19050A   26087.54808671  .00000090  00000+0  00000+0 0  9992
2 44479   0.0186 266.8762 0001293 100.1809  33.2062  1.00274181 24372
