[{"OBJECT_NAME":"AMOS-17","OBJECT_ID":"2019-050A","EPOCH":"2026-03-28T13:09:14.691744","MEAN_MOTION":1.00274181,"ECCENTRICITY":0.00012937,"INCLINATION":0.0186,"RA_OF_ASC_NODE":266.8762,"ARG_OF_PERICENTER":100.1809,"MEAN_ANOMALY":33.2062,"EPHEMERIS_TYPE":0,"CLASSIFICATION_TYPE":"U","NORAD_CAT_ID":44479,"ELEMENT_SET_NO":999,"REV_AT_EPOCH":2437,"BSTAR":0,"MEAN_MOTION_DOT":9.0e-7,"MEAN_MOTION_DDOT":0}]
